[
  {
    "OBJECT_NAME": "STARLINK-4076",
    "OBJECT_ID": "22053M",
    "EPOCH": "2025-11-11T06:53:25.249920",
    "MEAN_MOTION": 15.08839236,
    "ECCENTRICITY": 0.0001475,
    "INCLINATION": 53.2177,
    "RA_OF_ASC_NODE": 325.6492,
    "ARG_OF_PERICENTER": 92.2163,
    "MEAN_ANOMALY": 267.8998,
    "EPHEMERIS_TYPE": 0,
    "CLASSIFICATION_TYPE": "U",
    "NORAD_CAT_ID": 52667,
    "ELEMENT_SET_NO": 999,
    "REV_AT_EPOCH": 19317,
    "BSTAR": 9.0283e-05,
    "MEAN_MOTION_DOT": 1.149e-05,
    "MEAN_MOTION_DDOT": 0.0,
    "TLE_LINE1": "1 52667U 22053M   25315.28709780  .00001149  00000+0  90283-4 0  9995",
    "TLE_LINE2": "2 52667  53.2177 325.6492 0001475  92.2163 267.8998 15.08839236193179",
    "COMMENT": "Grouped by shell and plane from TLE"
  },
  {
    "OBJECT_NAME": "STARLINK-4067",
    "OBJECT_ID": "22053N",
    "EPOCH": "2025-11-11T07:04:00.841152",
    "MEAN_MOTION": 15.08848287,
    "ECCENTRICITY": 0.0001434,
    "INCLINATION": 53.2177,
    "RA_OF_ASC_NODE": 325.6165,
    "ARG_OF_PERICENTER": 89.7143,
    "MEAN_ANOMALY": 270.4013,
    "EPHEMERIS_TYPE": 0,
    "CLASSIFICATION_TYPE": "U",
    "NORAD_CAT_ID": 52668,
    "ELEMENT_SET_NO": 999,
    "REV_AT_EPOCH": 19317,
    "BSTAR": 0.00012215,
    "MEAN_MOTION_DOT": 1.657e-05,
    "MEAN_MOTION_DDOT": 0.0,
    "TLE_LINE1": "1 52668U 22053N   25315.29445418  .00001657  00000+0  12215-3 0  9994",
    "TLE_LINE2": "2 52668  53.2177 325.6165 0001434  89.7143 270.4013 15.08848287193175",
    "COMMENT": "Grouped by shell and plane from TLE"
  },
  {
    "OBJECT_NAME": "STARLINK-3972",
    "OBJECT_ID": "22053P",
    "EPOCH": "2025-11-11T06:37:31.503648",
    "MEAN_MOTION": 15.08837313,
    "ECCENTRICITY": 0.000121,
    "INCLINATION": 53.2173,
    "RA_OF_ASC_NODE": 325.6995,
    "ARG_OF_PERICENTER": 94.912,
    "MEAN_ANOMALY": 265.2011,
    "EPHEMERIS_TYPE": 0,
    "CLASSIFICATION_TYPE": "U",
    "NORAD_CAT_ID": 52669,
    "ELEMENT_SET_NO": 999,
    "REV_AT_EPOCH": 19316,
    "BSTAR": 4.8641000000000004e-05,
    "MEAN_MOTION_DOT": 4.86e-06,
    "MEAN_MOTION_DDOT": 0.0,
    "TLE_LINE1": "1 52669U 22053P   25315.27605907  .00000486  00000+0  48641-4 0  9996",
    "TLE_LINE2": "2 52669  53.2173 325.6995 0001210  94.9120 265.2011 15.08837313193165",
    "COMMENT": "Grouped by shell and plane from TLE"
  },
  {
    "OBJECT_NAME": "STARLINK-4075",
    "OBJECT_ID": "22053Q",
    "EPOCH": "2025-11-11T07:09:19.314144",
    "MEAN_MOTION": 15.08847081,
    "ECCENTRICITY": 0.0001377,
    "INCLINATION": 53.2172,
    "RA_OF_ASC_NODE": 325.6667,
    "ARG_OF_PERICENTER": 82.2129,
    "MEAN_ANOMALY": 277.9019,
    "EPHEMERIS_TYPE": 0,
    "CLASSIFICATION_TYPE": "U",
    "NORAD_CAT_ID": 52670,
    "ELEMENT_SET_NO": 999,
    "REV_AT_EPOCH": 19317,
    "BSTAR": 8.255300000000001e-05,
    "MEAN_MOTION_DOT": 1.026e-05,
    "MEAN_MOTION_DDOT": 0.0,
    "TLE_LINE1": "1 52670U 22053Q   25315.29814021  .00001026  00000+0  82553-4 0  9990",
    "TLE_LINE2": "2 52670  53.2172 325.6667 0001377  82.2129 277.9019 15.08847081193177",
    "COMMENT": "Grouped by shell and plane from TLE"
  },
  {
    "OBJECT_NAME": "STARLINK-4071",
    "OBJECT_ID": "22053R",
    "EPOCH": "2025-11-11T06:32:16.543680",
    "MEAN_MOTION": 15.08803533,
    "ECCENTRICITY": 0.0001559,
    "INCLINATION": 53.2175,
    "RA_OF_ASC_NODE": 325.7178,
    "ARG_OF_PERICENTER": 86.8901,
    "MEAN_ANOMALY": 273.2269,
    "EPHEMERIS_TYPE": 0,
    "CLASSIFICATION_TYPE": "U",
    "NORAD_CAT_ID": 52671,
    "ELEMENT_SET_NO": 999,
    "REV_AT_EPOCH": 19316,
    "BSTAR": 0.0,
    "MEAN_MOTION_DOT": -4.274e-05,
    "MEAN_MOTION_DDOT": 0.0,
    "TLE_LINE1": "1 52671U 22053R   25315.27241370 -.00004274  00000+0 -25084-3 0  9995",
    "TLE_LINE2": "2 52671  53.2175 325.7178 0001559  86.8901 273.2269 15.08803533193168",
    "COMMENT": "Grouped by shell and plane from TLE"
  },
  {
    "OBJECT_NAME": "STARLINK-4073",
    "OBJECT_ID": "22053S",
    "EPOCH": "2025-11-11T06:48:07.301376",
    "MEAN_MOTION": 15.0884366,
    "ECCENTRICITY": 0.0001377,
    "INCLINATION": 53.2177,
    "RA_OF_ASC_NODE": 325.6665,
    "ARG_OF_PERICENTER": 92.7432,
    "MEAN_ANOMALY": 267.3718,
    "EPHEMERIS_TYPE": 0,
    "CLASSIFICATION_TYPE": "U",
    "NORAD_CAT_ID": 52672,
    "ELEMENT_SET_NO": 999,
    "REV_AT_EPOCH": 19316,
    "BSTAR": 8.937100000000001e-05,
    "MEAN_MOTION_DOT": 1.135e-05,
    "MEAN_MOTION_DDOT": 0.0,
    "TLE_LINE1": "1 52672U 22053S   25315.28341784  .00001135  00000+0  89371-4 0  9998",
    "TLE_LINE2": "2 52672  53.2177 325.6665 0001377  92.7432 267.3718 15.08843660193162",
    "COMMENT": "Grouped by shell and plane from TLE"
  },
  {
    "OBJECT_NAME": "STARLINK-3976",
    "OBJECT_ID": "22053T",
    "EPOCH": "2025-11-11T06:21:37.770336",
    "MEAN_MOTION": 15.08842255,
    "ECCENTRICITY": 0.0001635,
    "INCLINATION": 53.2184,
    "RA_OF_ASC_NODE": 325.7505,
    "ARG_OF_PERICENTER": 96.6142,
    "MEAN_ANOMALY": 263.5036,
    "EPHEMERIS_TYPE": 0,
    "CLASSIFICATION_TYPE": "U",
    "NORAD_CAT_ID": 52673,
    "ELEMENT_SET_NO": 999,
    "REV_AT_EPOCH": 19316,
    "BSTAR": 5.8907000000000004e-05,
    "MEAN_MOTION_DOT": 6.5e-06,
    "MEAN_MOTION_DDOT": 0.0,
    "TLE_LINE1": "1 52673U 22053T   25315.26502049  .00000650  00000+0  58907-4 0  9992",
    "TLE_LINE2": "2 52673  53.2184 325.7505 0001635  96.6142 263.5036 15.08842255193163",
    "COMMENT": "Grouped by shell and plane from TLE"
  },
  {
    "OBJECT_NAME": "STARLINK-3936",
    "OBJECT_ID": "22053U",
    "EPOCH": "2025-11-11T06:42:49.593024",
    "MEAN_MOTION": 15.08838302,
    "ECCENTRICITY": 0.0001447,
    "INCLINATION": 53.2176,
    "RA_OF_ASC_NODE": 325.6836,
    "ARG_OF_PERICENTER": 92.9176,
    "MEAN_ANOMALY": 267.1982,
    "EPHEMERIS_TYPE": 0,
    "CLASSIFICATION_TYPE": "U",
    "NORAD_CAT_ID": 52674,
    "ELEMENT_SET_NO": 999,
    "REV_AT_EPOCH": 19317,
    "BSTAR": 8.138600000000001e-05,
    "MEAN_MOTION_DOT": 1.007e-05,
    "MEAN_MOTION_DDOT": 0.0,
    "TLE_LINE1": "1 52674U 22053U   25315.27974066  .00001007  00000+0  81386-4 0  9990",
    "TLE_LINE2": "2 52674  53.2176 325.6836 0001447  92.9176 267.1982 15.08838302193177",
    "COMMENT": "Grouped by shell and plane from TLE"
  },
  {
    "OBJECT_NAME": "STARLINK-4006",
    "OBJECT_ID": "22053W",
    "EPOCH": "2025-11-11T06:26:55.708512",
    "MEAN_MOTION": 15.08820305,
    "ECCENTRICITY": 0.0001421,
    "INCLINATION": 53.2183,
    "RA_OF_ASC_NODE": 325.7372,
    "ARG_OF_PERICENTER": 95.6582,
    "MEAN_ANOMALY": 264.4572,
    "EPHEMERIS_TYPE": 0,
    "CLASSIFICATION_TYPE": "U",
    "NORAD_CAT_ID": 52676,
    "ELEMENT_SET_NO": 999,
    "REV_AT_EPOCH": 19316,
    "BSTAR": 7.0735e-05,
    "MEAN_MOTION_DOT": 8.37e-06,
    "MEAN_MOTION_DDOT": 0.0,
    "TLE_LINE1": "1 52676U 22053W   25315.26870033  .00000837  00000+0  70735-4 0  9996",
    "TLE_LINE2": "2 52676  53.2183 325.7372 0001421  95.6582 264.4572 15.08820305193164",
    "COMMENT": "Grouped by shell and plane from TLE"
  },
  {
    "OBJECT_NAME": "STARLINK-4041",
    "OBJECT_ID": "22053AR",
    "EPOCH": "2025-11-11T07:39:05.176224",
    "MEAN_MOTION": 15.08846314,
    "ECCENTRICITY": 0.0001369,
    "INCLINATION": 53.2177,
    "RA_OF_ASC_NODE": 320.3053,
    "ARG_OF_PERICENTER": 89.5034,
    "MEAN_ANOMALY": 270.6115,
    "EPHEMERIS_TYPE": 0,
    "CLASSIFICATION_TYPE": "U",
    "NORAD_CAT_ID": 52695,
    "ELEMENT_SET_NO": 999,
    "REV_AT_EPOCH": 19322,
    "BSTAR": 7.447500000000001e-05,
    "MEAN_MOTION_DOT": 8.98e-06,
    "MEAN_MOTION_DDOT": 0.0,
    "TLE_LINE1": "1 52695U 22053AR  25315.31880991  .00000898  00000+0  74475-4 0  9999",
    "TLE_LINE2": "2 52695  53.2177 320.3053 0001369  89.5034 270.6115 15.08846314193227",
    "COMMENT": "Grouped by shell and plane from TLE"
  },
  {
    "OBJECT_NAME": "STARLINK-4018",
    "OBJECT_ID": "22053AT",
    "EPOCH": "2025-11-11T06:42:12.803040",
    "MEAN_MOTION": 15.08843301,
    "ECCENTRICITY": 0.0001326,
    "INCLINATION": 53.217,
    "RA_OF_ASC_NODE": 320.6839,
    "ARG_OF_PERICENTER": 92.1915,
    "MEAN_ANOMALY": 267.9229,
    "EPHEMERIS_TYPE": 0,
    "CLASSIFICATION_TYPE": "U",
    "NORAD_CAT_ID": 52697,
    "ELEMENT_SET_NO": 999,
    "REV_AT_EPOCH": 19321,
    "BSTAR": 9.251200000000001e-05,
    "MEAN_MOTION_DOT": 1.185e-05,
    "MEAN_MOTION_DDOT": 0.0,
    "TLE_LINE1": "1 52697U 22053AT  25315.27931485  .00001185  00000+0  92512-4 0  9993",
    "TLE_LINE2": "2 52697  53.2170 320.6839 0001326  92.1915 267.9229 15.08843301193215",
    "COMMENT": "Grouped by shell and plane from TLE"
  },
  {
    "OBJECT_NAME": "STARLINK-4030",
    "OBJECT_ID": "22053AU",
    "EPOCH": "2025-11-11T06:56:43.346976",
    "MEAN_MOTION": 15.08847855,
    "ECCENTRICITY": 0.0001468,
    "INCLINATION": 53.2179,
    "RA_OF_ASC_NODE": 320.629,
    "ARG_OF_PERICENTER": 82.8903,
    "MEAN_ANOMALY": 277.2256,
    "EPHEMERIS_TYPE": 0,
    "CLASSIFICATION_TYPE": "U",
    "NORAD_CAT_ID": 52698,
    "ELEMENT_SET_NO": 999,
    "REV_AT_EPOCH": 19320,
    "BSTAR": 0.00010205,
    "MEAN_MOTION_DOT": 1.337e-05,
    "MEAN_MOTION_DDOT": 0.0,
    "TLE_LINE1": "1 52698U 22053AU  25315.28939059  .00001337  00000+0  10205-3 0  9997",
    "TLE_LINE2": "2 52698  53.2179 320.6290 0001468  82.8903 277.2256 15.08847855193207",
    "COMMENT": "Grouped by shell and plane from TLE"
  },
  {
    "OBJECT_NAME": "STARLINK-4034",
    "OBJECT_ID": "22053AW",
    "EPOCH": "2025-11-11T07:33:46.845792",
    "MEAN_MOTION": 15.08832596,
    "ECCENTRICITY": 0.0001408,
    "INCLINATION": 53.2178,
    "RA_OF_ASC_NODE": 320.1691,
    "ARG_OF_PERICENTER": 83.4496,
    "MEAN_ANOMALY": 276.6657,
    "EPHEMERIS_TYPE": 0,
    "CLASSIFICATION_TYPE": "U",
    "NORAD_CAT_ID": 52700,
    "ELEMENT_SET_NO": 999,
    "REV_AT_EPOCH": 19322,
    "BSTAR": 4.0013e-05,
    "MEAN_MOTION_DOT": 3.49e-06,
    "MEAN_MOTION_DDOT": 0.0,
    "TLE_LINE1": "1 52700U 22053AW  25315.31512553  .00000349  00000+0  40013-4 0  9994",
    "TLE_LINE2": "2 52700  53.2178 320.1691 0001408  83.4496 276.6657 15.08832596193224",
    "COMMENT": "Grouped by shell and plane from TLE"
  }
]